235P/LINEAR,e,9.8126,200.1686,352.2105,3.446173,0.1540631,0.42604970,24.8497,06/02.0/2026,2000,g 12.0,4.0
# From MPC191614
236P/LINEAR,e,16.3211,245.4214,119.5650,3.730263,0.1368027,0.51057184,66.0411,06/02.0/2026,2000,g 14.0,4.0
# From MPC191615
237P/LINEAR,e,13.9878,245.3454,25.5808,3.520863,0.1491868,0.43097928,166.5647,06/02.0/2026,2000,g 14.5,2.0
# From MPC191615
238P/Read,e,1.2634,51.6508,324.2200,3.168652,0.1747400,0.25022579,254.9375,06/02.0/2026,2000,g 14.5,4.0
# From MPC191615
239P/LINEAR,e,11.3043,255.9064,220.4479,4.462012,0.1045702,0.63163318,281.9149,06/02.0/2026,2000,g 17.5,2.0
# From MPEC 2026-KB8
240P/NEAT,e,23.5316,74.9053,352.0751,3.863272,0.1297989,0.45084751,21.2948,06/02.0/2026,2000,g 11.0,4.0
# From MPEC 2026-J34
240P-B/NEAT,e,23.5300,74.9059,352.0730,3.862550,0.1298354,0.45074952,21.2951,06/02.0/2026,2000,g 15.5,4.0
# From MPC191615
241P/LINEAR,e,21.0947,305.3590,111.6992,4.929690,0.0900481,0.60963099,159.5866,06/02.0/2026,2000,g 13.5,4.0
# From MPEC 2026-J34
242P/Spahr,e,32.4517,180.1174,245.0991,5.536292,0.0756616,0.28253958,39.7698,06/02.0/2026,2000,g  8.0,4.0
# From MPEC 2026-J11
243P/NEAT,e,7.6445,87.5738,283.7940,3.824847,0.1317598,0.35997452,12.7007,06/02.0/2026,2000,g 12.5,4.0
# From MPC191615
244P/Scotti,e,2.2569,353.9951,93.6847,4.907519,0.0906590,0.19952446,116.8736,06/02.0/2026,2000,g  9.0,4.0
# From MPC191615
245P/WISE,e,21.1713,316.6652,316.6940,4.054641,0.1207189,0.45602515,7.5914,06/02.0/2026,2000,g 14.0,4.0
# From MPC191616
246P/NEAT,e,17.1440,73.8057,184.6429,4.341775,0.1089439,0.20883609,224.1722,06/02.0/2026,2000,g 10.5,4.0
# From MPC191616
247P/LINEAR,e,13.6599,53.9945,47.5316,3.961910,0.1249819,0.62557493,341.7550,06/02.0/2026,2000,g 16.5,2.0
# From MPEC 2026-GD5
248P/Gibbs,e,6.3514,207.7275,210.0245,5.991760,0.0672005,0.64001927,17.4786,06/02.0/2026,2000,g 14.0,4.0
# From MPC191616
249P/LINEAR,e,8.2763,238.2603,66.6952,2.775113,0.2131980,0.81874231,103.4239,06/02.0/2026,2000,g 15.5,4.0
# From MPEC 2026-KB8
250P/Larson,e,13.1516,73.3015,45.7197,3.775836,0.1343335,0.39809700,51.2166,06/02.0/2026,2000,g 14.5,4.0
# From MPC191616
251P/LINEAR,e,23.3932,219.3372,31.1522,3.510623,0.1498400,0.50421033,125.8687,06/02.0/2026,2000,g 16.5,2.0
# From MPC191616
252P/LINEAR,e,10.4204,190.9061,343.3658,3.052127,0.1848418,0.67121431,330.6530,06/02.0/2026,2000,g 17.5,4.0
# From MPC191616
253P/PANSTARRS,e,4.9553,146.7888,230.6423,3.460412,0.1531131,0.41619779,90.1881,06/02.0/2026,2000,g 14.5,4.0
# From MPC194203
254P/McNaught,e,32.5354,129.1739,219.6592,4.621202,0.0992137,0.31821088,205.8238,06/02.0/2026,2000,g 11.0,4.0
# From MPC191617
256P/LINEAR,e,27.6225,81.3001,124.0409,4.633332,0.0988243,0.41840544,116.3922,06/02.0/2026,2000,g 14.0,2.0
# From MPC191617
257P/Catalina,e,20.2116,207.7337,117.6692,3.769435,0.1346758,0.42869109,282.0833,06/02.0/2026,2000,g 11.5,4.0
# From MPC191617
258P/PANSTARRS,e,6.7510,126.2338,25.7218,4.386491,0.1072823,0.21001343,232.9833,06/02.0/2026,2000,g 13.0,4.0
# From MPC191617
259P/Garradd,e,15.8955,51.4350,257.3733,2.730119,0.2184900,0.33879771,344.4972,06/02.0/2026,2000,g 15.5,4.0
# From MPEC 2026-KB8
260P/McNaught,e,15.0394,349.2713,18.5143,3.623291,0.1429056,0.60865280,350.8527,06/02.0/2026,2000,g 13.5,4.0
# From MPC194203
261P/Larson,e,6.0734,291.0495,67.3710,3.488299,0.1512807,0.42257377,23.6877,06/02.0/2026,2000,g 14.0,4.0
# From MPC191617
264P/Larsen,e,25.5377,218.9228,341.4828,4.037971,0.1214673,0.33692784,324.2831,06/02.0/2026,2000,g 13.0,4.0
# From MPC191617
265P/LINEAR,e,14.3291,342.8668,33.6056,4.262241,0.1120075,0.64622017,217.3368,06/02.0/2026,2000,g 14.5,4.0
# From MPC191618
266P/Christensen,e,3.4285,4.9833,97.8328,3.527562,0.1487620,0.34068434,331.8945,06/02.0/2026,2000,g 12.5,4.0
# From MPEC 2026-HH0
268P/Bernardi,e,15.6613,125.6278,0.0757,4.593382,0.1001164,0.47453965,53.1000,06/02.0/2026,2000,g 14.0,4.0
# From MPC191618
269P/Jedicke,e,7.0818,241.7340,225.8240,7.056139,0.0525840,0.43369985,223.4208,06/02.0/2026,2000,g 10.0,4.0
# From MPC191618
270P/Gehrels,e,2.9244,223.0115,209.9892,6.646748,0.0575162,0.47002351,271.5671,06/02.0/2026,2000,g  8.0,4.0
# From MPC191618
271P/vanHouten-Lemmon,e,6.8627,9.2058,36.6997,7.033688,0.0528359,0.39534759,247.9019,06/02.0/2026,2000,g 11.0,4.0
# From MPC191618
272P/NEAT,e,18.0829,109.4387,27.9162,4.462199,0.1045637,0.45570703,147.9436,06/02.0/2026,2000,g 16.0,2.0
# From MPC191618
274P/Tombaugh-Tenagra,e,15.8170,81.3116,38.5368,4.378875,0.1075623,0.44032425,162.8720,06/02.0/2026,2000,g 13.0,4.0
# From MPC191618
275P/Hermann,e,21.2490,348.7115,173.8265,5.804336,0.0704815,0.71410478,349.5767,06/02.0/2026,2000,g 15.0,4.0
# From MPC194203
276P/Vorobjov,e,14.7189,210.5817,200.2003,5.393084,0.0786952,0.27730583,42.1873,06/02.0/2026,2000,g 11.5,4.0
# From MPC191619
277P/LINEAR,e,16.7918,276.2596,152.4556,3.853496,0.1302932,0.50619029,257.6831,06/02.0/2026,2000,g 14.0,4.0
# From MPC191619
278P/McNaught,e,6.6570,10.4866,243.6974,3.608340,0.1437947,0.45471679,292.2904,06/02.0/2026,2000,g 14.0,4.0
# From MPC191619
279P/LaSagra,e,5.0558,346.0914,5.5401,3.565820,0.1463743,0.39991261,166.9373,06/02.0/2026,2000,g 14.0,4.0
# From MPC191619
280P/Larsen,e,11.7751,131.3745,104.5632,4.521919,0.1024991,0.41719722,105.8311,06/02.0/2026,2000,g 12.5,4.0
# From MPC191619
281P/MOSS,e,4.7172,87.1696,27.2131,4.889841,0.0911511,0.17383996,110.5090,06/02.0/2026,2000,g 11.0,4.0
# From MPC191619
283P/Spacewatch,e,14.4719,161.1289,22.1638,4.129790,0.1174389,0.48564817,202.7109,06/02.0/2026,2000,g 16.0,2.0
# From MPC191619
284P/McNaught,e,11.8512,144.2573,202.4193,3.680113,0.1396087,0.37406345,240.9767,06/02.0/2026,2000,g 13.0,4.0
# From MPC191619
286P/Christensen,e,17.0913,283.3953,23.1788,4.039650,0.1213915,0.44227680,179.4175,06/02.0/2026,2000,g 14.0,4.0
# From MPC191620
287P/Christensen,e,16.5787,138.0160,193.2870,4.233049,0.1131681,0.26804884,118.9842,06/02.0/2026,2000,g 13.5,4.0
# From MPC133426
288P/,e,3.2380,83.1078,280.2150,3.051441,0.1849041,0.19934701,287.5260,06/02.0/2026,2000,g 16.0,2.0
# From MPC191620
289P/Blanpain,e,5.8996,68.8941,9.8865,3.043899,0.1855918,0.68633535,76.7817,06/02.0/2026,2000,g 19.0,4.0
# From MPC191620
290P/Jager,e,20.0088,302.6372,181.9301,6.211604,0.0636647,0.62808404,287.0029,06/02.0/2026,2000,g 10.5,4.0
# From MPC191620
291P/NEAT,e,6.3086,237.6714,173.5916,4.536335,0.1020109,0.43344742,114.7999,06/02.0/2026,2000,g 13.0,4.0
# From MPC191620
292P/Li,e,24.3192,90.8949,319.6720,6.094427,0.0655096,0.58959503,294.0823,06/02.0/2026,2000,g 12.5,4.0
# From MPC191620
293P/Spacewatch,e,9.0617,78.3812,41.0221,3.636125,0.1421496,0.41969792,282.5128,06/02.0/2026,2000,g 14.5,4.0
# From MPC191620
294P/LINEAR,e,17.7435,309.5985,237.5943,3.191040,0.1729043,0.60106654,50.9695,06/02.0/2026,2000,g 15.5,4.0
# From MPC191620
295P/LINEAR,e,21.0880,7.3782,73.0730,5.296510,0.0808573,0.61756276,355.8941,06/02.0/2026,2000,g 12.0,4.0
# From MPC191620
296P/Garradd,e,25.3415,263.4607,350.6314,3.461669,0.1530297,0.48703832,315.3948,06/02.0/2026,2000,g 14.0,4.0
# From MPC191620
297P/Beshore,e,11.2751,89.9508,145.3363,3.566143,0.1463545,0.27693838,284.7397,06/02.0/2026,2000,g 15.0,4.0
# From MPC191621
298P/Christensen,e,7.8734,52.7814,100.6433,3.587830,0.1450295,0.38721813,303.7861,06/02.0/2026,2000,g 15.0,4.0
# From MPC191621
299P/Catalina-PANSTARRS,e,10.4681,271.5697,323.5484,4.387305,0.1072525,0.28109406,81.8570,06/02.0/2026,2000,g 11.5,4.0
# From MPC191621
300P/Catalina,e,5.6754,95.6039,222.8990,2.695293,0.2227384,0.69285742,255.6430,06/02.0/2026,2000,g 16.0,4.0
# From MPC191621
301P/LINEAR-NEAT,e,10.3255,351.1203,193.3490,5.755448,0.0713814,0.58664962,308.9935,06/02.0/2026,2000,g 13.0,4.0
# From MPEC 2026-GD5
302P/Lemmon-PANSTARRS,e,6.0356,121.7165,208.5779,4.264819,0.1119060,0.22891350,50.3477,06/02.0/2026,2000,g 12.5,4.0
# From MPC191621
303P/NEAT,e,7.0169,347.9061,357.0520,5.036506,0.0871987,0.50991868,8.9023,06/02.0/2026,2000,g 13.5,4.0
# From MPC191621
304P/Ory,e,2.6065,58.9004,335.3312,3.149033,0.1763755,0.60077553,13.3672,06/02.0/2026,2000,g 16.5,4.0
# From MPC191621
306P/LINEAR,e,8.3035,341.3105,0.9966,3.126673,0.1782709,0.59266236,54.2450,06/02.0/2026,2000,g 19.0,4.0
# From MPC191622
308P/Lagerkvist-Carsenty,e,4.8522,63.0378,333.8130,6.603961,0.0580761,0.36347848,234.4593,06/02.0/2026,2000,g 13.0,2.0
# From MPC191622
309P/LINEAR,e,17.0134,10.1360,49.9495,4.375578,0.1076839,0.61795031,85.6318,06/02.0/2026,2000,g 15.0,4.0
# From MPC191622
310P/Hill,e,13.1188,8.8847,31.5053,4.180543,0.1153068,0.42176507,109.9152,06/02.0/2026,2000,g 13.5,4.0
# From MPC191622
311P/PANSTARRS,e,4.9711,279.1672,144.3442,2.188828,0.3043593,0.11533478,268.4249,06/02.0/2026,2000,g 17.0,4.0
# From MPC191622
312P/NEAT,e,19.7457,144.6230,207.6653,3.473503,0.1522483,0.42649434,316.3802,06/02.0/2026,2000,g 16.0,4.0
# From MPC191622
313P/Gibbs,e,10.9811,105.9244,255.0055,3.162127,0.1752811,0.23417605,31.7608,06/02.0/2026,2000,g 15.0,4.0
# From MPC191622
314P/Montani,e,3.9911,267.6154,213.9257,7.248223,0.0505076,0.41882904,177.5506,06/02.0/2026,2000,g  9.5,4.0
# From MPC191622
315P/LONEOS,e,17.7395,68.6135,66.0055,4.933358,0.0899477,0.52230971,312.1044,06/02.0/2026,2000,g 11.0,4.0
# From MPC191622
316P/LONEOS-Christensen,e,9.8639,245.7668,186.0865,4.391668,0.1070927,0.15478810,65.6180,06/02.0/2026,2000,g 13.5,4.0
# From MPC191622
317P/WISE,e,11.9745,275.4701,334.8774,2.959619,0.1935754,0.57207798,41.4544,06/02.0/2026,2000,g 17.5,4.0
# From MPC191623
319P/Catalina-McNaught,e,15.0971,111.3643,203.5629,3.560576,0.1466978,0.66758801,223.6477,06/02.0/2026,2000,g 15.0,4.0
# From MPC191623
320P/McNaught,e,4.9011,295.9433,0.7572,3.096397,0.1808919,0.68502314,355.3296,06/02.0/2026,2000,g 20.5,4.0
# From MPC191623
324P/LaSagra,e,21.3981,270.5686,57.3178,3.097883,0.1807618,0.15271812,335.7033,06/02.0/2026,2000,g 13.0,4.0
# From MPC191623
325P/Yang-Gao,e,16.8336,256.8652,344.8380,3.551843,0.1472392,0.58637364,225.7968,06/02.0/2026,2000,g 14.0,4.0
# From MPC191623
